COSMOS 1408 DEB         
1 49527U 82092Q   24359.94324507  .00154366  00000+0  73341-2 0  9999
2 49527  82.3636 192.5684 0214321 178.7536 181.4273 15.00673577163188
COSMOS 1408 DEB         
1 49537U 82092AA  24359.80291227  .00038559  00000+0  10412-2 0  9992
2 49537  82.5456 103.6916 0087208 110.9394 250.1209 15.33725704170934
COSMOS 1408 DEB         
1 49619U 82092DL  24359.83134162  .00779836  00000+0  12263-1 0  9995
2 49619  81.9071 123.5667 0105976 201.1558 158.5292 15.45184170163454
COSMOS 1408 DEB         
1 50032U 82092RU  24359.66108822  .00007788  00000+0  18576-3 0  9996
2 50032  82.5653  59.1678 0018486  55.6328 304.6664 15.41177884171579
COSMOS 1408 DEB         
1 50058U 82092SW  24359.81900049  .00023687  00000+0  48052-3 0  9990
2 50058  82.6153  73.3601 0023650 319.9128  40.0375 15.45914159173222
COSMOS 1408 DEB         
1 50351U 82092ABM 24359.72706372  .00277551  00000+0  28258-2 0  9995
2 50351  82.5019 103.8784 0051203 126.3490 234.2510 15.62632188170678
COSMOS 1408 DEB         
1 50404U 82092ADS 24359.82477424  .00052073  00000+0  42698-2 0  9992
2 50404  82.2321 201.0259 0344240 282.4060  73.8824 14.62655698159505
COSMOS 1408 DEB         
1 50621U 82092ALR 24359.63267273  .00022179  00000+0  53187-3 0  9991
2 50621  82.5764  76.9560 0040149   1.1640 358.9692 15.40389419167876
COSMOS 1408 DEB         
1 50689U 82092APM 24359.87094646  .00140959  00000+0  81531-3 0  9994
2 50689  82.5029  43.3371 0020815 235.2246 124.7061 15.77876534168286
COSMOS 1408 DEB         
1 51184U 82092AZJ 24359.86269328  .00070752  00000+0  64035-3 0  9998
2 51184  82.4866  40.0921 0011514 241.3116 118.6988 15.67732473166178
COSMOS 1408 DEB         
1 51435U 82092BKH 24359.65950721  .00137471  00000+0  12081-2 0  9993
2 51435  82.5440  73.5278 0026719   4.4336 355.7156 15.67888194163537
COSMOS 1408 DEB         
1 52066U 82092BUU 24357.22955291  .00159727  00000+0  32403-2 0  9990
2 52066  82.5088 115.3698 0087431 177.3849 182.7875 15.41714890155040
